SKYSAT-C4               
1 41771U 16058B   26166.00585247  .00015333  00000+0  28951-3 0  9994
2 41771  96.9169 187.8695 0001230 129.0648 231.0713 15.48527321545135
SKYSAT-C5               
1 41772U 16058C   26166.08235064  .00007011  00000+0  21239-3 0  9998
2 41772  97.0468 206.8165 0001271 332.0024  28.1151 15.34444981543429
SKYSAT-C2               
1 41773U 16058D   26166.31263317  .00009660  00000+0  22816-3 0  9991
2 41773  97.0163 188.4780 0004812  74.5223 285.6557 15.42033018544765
SKYSAT-C3               
1 41774U 16058E   26166.53199880  .00018400  00000+0  30189-3 0  9993
2 41774  96.9000 197.4423 0001551  93.2936 266.8495 15.52477338545855
ALSAT-1B                
1 41785U 16059C   26166.54109536  .00000551  00000+0  94731-4 0  9998
2 41785  97.7744 175.3754 0007974 226.6232 133.4312 14.72274906520339
PATHFINDER 1            
1 41787U 16059E   26166.50028413  .00000477  00000+0  91540-4 0  9992
2 41787  97.8166 165.8527 0027663 209.0885 150.8781 14.67661426519464
SCATSAT 1               
1 41790U 16059H   26166.45487566  .00000924  00000+0  12826-3 0  9994
2 41790  98.1191 230.2030 0053321 253.2225 106.3132 14.79522111101334
GOKTURK 1A              
1 41875U 16073A   26166.46723419  .00000080  00000+0  24818-4 0  9993
2 41875  98.1263  61.1692 0001452  78.1659 281.9705 14.62772582508570
RESOURCESAT-2A          
1 41877U 16074A   26166.52239022  .00000310  00000+0  16166-3 0  9997
2 41877  98.7534 240.0402 0003350  86.9884 273.1676 14.21616924494062
CARTOSAT-2D             
1 41948U 17008A   26166.51184834  .00003720  00000+0  17930-3 0  9991
2 41948  97.4111 225.8493 0003843 236.3908 123.6961 15.19323667517322
SENTINEL-2B             
1 42063U 17013A   26166.45923878  .00000209  00000+0  96448-4 0  9999
2 42063  98.5699 241.2580 0001185  86.7714 273.3604 14.30817020484392
CARTOSAT-2E             
1 42767U 17036C   26166.46381530  .00002189  00000+0  10711-3 0  9996
2 42767  97.4280 226.2946 0002599 330.1531  29.9555 15.19241169497880
FORMOSAT-5              
1 42920U 17049A   26166.46674609  .00000132  00000+0  44552-4 0  9990
2 42920  98.2254 241.8146 0012701  89.1024 271.1627 14.50898275466427
SENTINEL-5P             
1 42969U 17064A   26166.43973074  .00000037  00000+0  38541-4 0  9990
2 42969  98.7925 108.5833 0000961  84.1152 276.0133 14.19518700449316
SKYSAT-C11              
1 42987U 17068A   26166.38722227  .00023728  00000+0  32000-3 0  9995
2 42987  97.4347 315.1395 0000710  84.8700 275.2637 15.57812297482966
SKYSAT-C10              
1 42988U 17068B   26166.33621501  .00007617  00000+0  22955-3 0  9991
2 42988  97.4505 303.1648 0001147  94.4508 265.6866 15.34611051482078
SKYSAT-C9               
1 42989U 17068C   26166.35650147  .00010389  00000+0  24931-3 0  9998
2 42989  97.4425 304.1026 0009335 138.7533 221.4420 15.41521994482472
SKYSAT-C8               
1 42990U 17068D   26166.31037965  .00008508  00000+0  23779-3 0  9992
2 42990  97.4522 302.9315 0001473  97.1618 262.9793 15.36944191482022
SKYSAT-C7               
1 42991U 17068E   26166.36904535  .00008328  00000+0  23300-3 0  9994
2 42991  97.4532 303.9802 0007188 111.7660 248.4349 15.36895150482098
SKYSAT-C6               
1 42992U 17068F   26166.38574799  .00007751  00000+0  23666-3 0  9996
2 42992  97.4566 303.9735 0004351 142.3114 217.8434 15.34183362482047
CARTOSAT-2F             
1 43111U 18004A   26166.49594897  .00003691  00000+0  17862-3 0  9994
2 43111  97.4796 226.1470 0000571 223.1144 137.0045 15.19205267467078
GAOFEN-1 02             
1 43259U 18031A   26166.53645617  .00000890  00000+0  13531-3 0  9996
2 43259  98.0534 229.0683 0003937  38.2991 321.8497 14.76455358442459
GAOFEN-1 03             
1 43260U 18031B   26166.51461885  .00000611  00000+0  95248-4 0  9996
2 43260  98.0524 228.9050 0003778  82.4175 277.7464 14.76466834442447
GAOFEN-1 04             
1 43262U 18031D   26166.49029263  .00001016  00000+0  15334-3 0  9992
2 43262  98.0535 229.0712 0002251  83.4969 276.6497 14.76479018442436
SENTINEL-3B             
1 43437U 18039A   26166.43645841  .00000065  00000+0  45013-4 0  9995
2 43437  98.6250 233.9938 0000742  85.5987 274.5279 14.26734189423870
GAOFEN-5 01             
1 43461U 18043A   26166.48610975  .00000272  00000+0  65958-4 0  9992
2 43461  98.4568 138.0366 0003032  86.4061 273.7485 14.60604379431442
GAOFEN-6                
1 43484U 18048A   26166.51256841  .00000537  00000+0  84032-4 0  9992
2 43484  97.8710 229.3018 0011926 172.7741 187.3644 14.76598202433142
GAOFEN-11 01            
1 43585U 18063A   26166.50050054  .00019148  00000+0  28409-3 0  9991
2 43585  97.1297 233.3848 0003320   5.9763 354.1530 15.55255038440087
ICESAT-2                
1 43613U 18070A   26166.45259623  .00007982  00000+0  28988-3 0  9993
2 43613  92.0081 290.5100 0005947 110.3229 249.8660 15.28256812432193
HYSIS                   
1 43719U 18096A   26166.51969248  .00000853  00000+0  12338-3 0  9998
2 43719  97.9847 233.2811 0001892 106.7208 253.4211 14.78693088407175
KAZSTSAT                
1 43783U 18099AB  26166.36292300  .00001353  00000+0  11367-3 0  9990
2 43783  97.4267 198.3742 0008415  74.5983 285.6171 14.99860877411038
