OBJECT_NAME,OBJECT_ID,EPOCH,MEAN_MOTION,ECCENTRICITY,INCLINATION,RA_OF_ASC_NODE,ARG_OF_PERICENTER,MEAN_ANOMALY,EPHEMERIS_TYPE,CLASSIFICATION_TYPE,NORAD_CAT_ID,ELEMENT_SET_NO,REV_AT_EPOCH,BSTAR,MEAN_MOTION_DOT,MEAN_MOTION_DDOT
SKYSAT-C4,2016-058B,2026-06-15T00:08:25.653408,15.48527321,.00012301,96.9169,187.8695,129.0648,231.0713,0,U,41771,999,54513,.28950755E-3,.15333E-3,0
SKYSAT-C5,2016-058C,2026-06-15T01:58:35.095296,15.34444981,.00012717,97.0468,206.8165,332.0024,28.1151,0,U,41772,999,54342,.2123923E-3,.7011E-4,0
SKYSAT-C2,2016-058D,2026-06-15T07:30:11.505888,15.42033018,.0004812,97.0163,188.4780,74.5223,285.6557,0,U,41773,999,54476,.22816E-3,.966E-4,0
SKYSAT-C3,2016-058E,2026-06-15T12:46:04.696320,15.52477338,.0001551,96.9000,197.4423,93.2936,266.8495,0,U,41774,999,54585,.30189E-3,.184E-3,0
ALSAT-1B,2016-059C,2026-06-15T12:59:10.639104,14.72274906,.0007974,97.7744,175.3754,226.6232,133.4312,0,U,41785,999,52033,.94731E-4,.551E-5,0
PATHFINDER 1,2016-059E,2026-06-15T12:00:24.548832,14.67661426,.0027663,97.8166,165.8527,209.0885,150.8781,0,U,41787,999,51946,.9154E-4,.477E-5,0
SCATSAT 1,2016-059H,2026-06-15T10:55:01.257024,14.79522111,.0053321,98.1191,230.2030,253.2225,106.3132,0,U,41790,999,10133,.12826E-3,.924E-5,0
GOKTURK 1A,2016-073A,2026-06-15T11:12:49.034016,14.62772582,.0001452,98.1263,61.1692,78.1659,281.9705,0,U,41875,999,50857,.24818E-4,.8E-6,0
RESOURCESAT-2A,2016-074A,2026-06-15T12:32:14.515008,14.21616924,.000335,98.7534,240.0402,86.9884,273.1676,0,U,41877,999,49406,.16166E-3,.31E-5,0
CARTOSAT-2D,2017-008A,2026-06-15T12:17:03.696576,15.19323667,.0003843,97.4111,225.8493,236.3908,123.6961,0,U,41948,999,51732,.1793E-3,.372E-4,0
SENTINEL-2B,2017-013A,2026-06-15T11:01:18.230592,14.30817020,.0001185,98.5699,241.2580,86.7714,273.3604,0,U,42063,999,48439,.96448E-4,.209E-5,0
CARTOSAT-2E,2017-036C,2026-06-15T11:07:53.641920,15.19241169,.0002599,97.4280,226.2946,330.1531,29.9555,0,U,42767,999,49788,.10711E-3,.2189E-4,0
FORMOSAT-5,2017-049A,2026-06-15T11:12:06.862176,14.50898275,.0012701,98.2254,241.8146,89.1024,271.1627,0,U,42920,999,46642,.44552E-4,.132E-5,0
SENTINEL-5P,2017-064A,2026-06-15T10:33:12.735936,14.19518700,.0000961,98.7925,108.5833,84.1152,276.0133,0,U,42969,999,44931,.38541E-4,.37E-6,0
SKYSAT-C11,2017-068A,2026-06-15T09:17:36.004128,15.57812297,.000071,97.4347,315.1395,84.8700,275.2637,0,U,42987,999,48296,.32E-3,.23728E-3,0
SKYSAT-C10,2017-068B,2026-06-15T08:04:08.976864,15.34611051,.0001147,97.4505,303.1648,94.4508,265.6866,0,U,42988,999,48207,.22955E-3,.7617E-4,0
SKYSAT-C9,2017-068C,2026-06-15T08:33:21.727008,15.41521994,.0009335,97.4425,304.1026,138.7533,221.4420,0,U,42989,999,48247,.24931E-3,.10389E-3,0
SKYSAT-C8,2017-068D,2026-06-15T07:26:56.801760,15.36944191,.0001473,97.4522,302.9315,97.1618,262.9793,0,U,42990,999,48202,.23779E-3,.8508E-4,0
SKYSAT-C7,2017-068E,2026-06-15T08:51:25.518240,15.36895150,.0007188,97.4532,303.9802,111.7660,248.4349,0,U,42991,999,48209,.233E-3,.8328E-4,0
SKYSAT-C6,2017-068F,2026-06-15T09:15:28.626336,15.34183362,.0004351,97.4566,303.9735,142.3114,217.8434,0,U,42992,999,48204,.23666E-3,.7751E-4,0
CARTOSAT-2F,2018-004A,2026-06-15T11:54:09.991008,15.19205267,.0000571,97.4796,226.1470,223.1144,137.0045,0,U,43111,999,46707,.17862E-3,.3691E-4,0
GAOFEN-1 02,2018-031A,2026-06-15T12:52:29.813088,14.76455358,.0003937,98.0534,229.0683,38.2991,321.8497,0,U,43259,999,44245,.13531E-3,.89E-5,0
GAOFEN-1 03,2018-031B,2026-06-15T12:21:03.068640,14.76466834,.0003778,98.0524,228.9050,82.4175,277.7464,0,U,43260,999,44244,.95248E-4,.611E-5,0
GAOFEN-1 04,2018-031D,2026-06-15T11:46:01.283232,14.76479018,.0002251,98.0535,229.0712,83.4969,276.6497,0,U,43262,999,44243,.15334E-3,.1016E-4,0
SENTINEL-3B,2018-039A,2026-06-15T10:28:30.006624,14.26734189,.0000742,98.6250,233.9938,85.5987,274.5279,0,U,43437,999,42387,.45013E-4,.65E-6,0
GAOFEN-5 01,2018-043A,2026-06-15T11:39:59.882400,14.60604379,.0003032,98.4568,138.0366,86.4061,273.7485,0,U,43461,999,43144,.65958E-4,.272E-5,0
GAOFEN-6,2018-048A,2026-06-15T12:18:05.910624,14.76598202,.0011926,97.8710,229.3018,172.7741,187.3644,0,U,43484,999,43314,.84032E-4,.537E-5,0
GAOFEN-11 01,2018-063A,2026-06-15T12:00:43.246656,15.55255038,.000332,97.1297,233.3848,5.9763,354.1530,0,U,43585,999,44008,.28409E-3,.19148E-3,0
ICESAT-2,2018-070A,2026-06-15T10:51:44.314272,15.28256812,.0005947,92.0081,290.5100,110.3229,249.8660,0,U,43613,999,43219,.28988E-3,.7982E-4,0
HYSIS,2018-096A,2026-06-15T12:28:21.430272,14.78693088,.0001892,97.9847,233.2811,106.7208,253.4211,0,U,43719,999,40717,.12338E-3,.853E-5,0
KAZSTSAT,2018-099AB,2026-06-15T08:42:36.547200,14.99860877,.0008415,97.4267,198.3742,74.5983,285.6171,0,U,43783,999,41103,.11367E-3,.1353E-4,0
